NORAD_CAT_ID,OBJECT_NAME,OBJECT_TYPE,EPOCH,MEAN_MOTION,ECCENTRICITY,INCLINATION,RA_OF_ASC_NODE,ARG_OF_PERICENTER,MEAN_ANOMALY,BSTAR,MEAN_MOTION_DOT,MEAN_MOTION_DDOT,TLE_LINE0,TLE_LINE1,TLE_LINE2,SEMIMAJOR_AXIS,PERIOD,APOGEE,PERIGEE,DECAYED
49738.0,STARLINK-3143,PAYLOAD,2023-06-17 15:02:40,15.08823338,9.49e-05,53.2161,300.6217,63.3779,296.731,-0.0002832,-4.79e-05,0.0,0 STARLINK-3143,1 49738U 21115Q   23168.62685342 -.00004790  00000-0 -28320-3 0  9997,2 49738  53.2161 300.6217 0000949  63.3779 296.7310 15.08823338 86279,6917.931,95.439,540.453,539.14,0.0
49738.0,STARLINK-3143,PAYLOAD,2023-06-18 02:10:22,15.08830402,0.0001103,53.2161,298.5394,61.7079,298.4024,0.00086393,0.00013485,0.0,0 STARLINK-3143,1 49738U 21115Q   23169.09053889  .00013485  00000-0  86393-3 0  9997,2 49738  53.2161 298.5394 0001103  61.7079 298.4024 15.08830402 86347,6917.91,95.438,540.538,539.012,0.0
49738.0,STARLINK-3143,PAYLOAD,2023-06-18 18:04:13,15.08861686,0.000124,53.2162,295.5673,48.5557,311.5542,0.0013012,0.00020494,0.0,0 STARLINK-3143,1 49738U 21115Q   23169.75293533  .00020494  00000-0  13012-2 0  9997,2 49738  53.2162 295.5673 0001240  48.5557 311.5542 15.08861686 86442,6917.814,95.436,540.537,538.821,0.0
49738.0,STARLINK-3143,PAYLOAD,2023-06-19 02:01:09,15.0885748,0.0001229,53.2168,294.0755,60.6004,299.511,0.00085655,0.00013377,0.0,0 STARLINK-3143,1 49738U 21115Q   23170.08413292  .00013377  00000-0  85655-3 0  9996,2 49738  53.2168 294.0755 0001229  60.6004 299.5110 15.08857480 86490,6917.827,95.436,540.542,538.842,0.0
49738.0,STARLINK-3143,PAYLOAD,2023-06-19 14:44:14,15.0886301,0.0001503,53.2167,291.7002,69.1507,290.9646,0.00078167,0.00012182,0.0,0 STARLINK-3143,1 49738U 21115Q   23170.61405129  .00012182  00000-0  78167-3 0  9998,2 49738  53.2167 291.7002 0001503  69.1507 290.9646 15.08863010 85466,6917.81,95.436,540.715,538.635,0.0
49738.0,STARLINK-3143,PAYLOAD,2023-06-19 16:19:37,15.08857838,0.000122,53.2162,291.4044,61.8791,298.2324,0.00061421,9.505e-05,0.0,0 STARLINK-3143,1 49738U 21115Q   23170.68029148  .00009505  00000-0  61421-3 0  9998,2 49738  53.2162 291.4044 0001220  61.8791 298.2324 15.08857838 86583,6917.826,95.436,540.535,538.847,0.0
49738.0,STARLINK-3143,PAYLOAD,2023-06-20 08:13:28,15.08846899,0.000127,53.2174,288.4283,65.625,294.4875,0.00047539,7.287e-05,0.0,0 STARLINK-3143,1 49738U 21115Q   23171.34269348  .00007287  00000-0  47539-3 0  9999,2 49738  53.2174 288.4283 0001270  65.6250 294.4875 15.08846899 86689,6917.859,95.437,540.603,538.846,0.0
49738.0,STARLINK-3143,PAYLOAD,2023-06-20 19:21:10,15.08847762,0.0001228,53.2178,286.3481,68.7507,291.3616,0.00010399,1.368e-05,0.0,0 STARLINK-3143,1 49738U 21115Q   23171.80637082  .00001368  00000-0  10399-3 0  9992,2 49738  53.2178 286.3481 0001228  68.7507 291.3616 15.08847762 85646,6917.857,95.437,540.571,538.872,0.0
49738.0,STARLINK-3143,PAYLOAD,2023-06-21 00:07:20,15.08834233,0.0001029,53.2163,285.4567,65.1822,294.9277,-0.00012493,-2.275e-05,0.0,0 STARLINK-3143,1 49738U 21115Q   23172.00509570 -.00002275  00000-0 -12493-3 0  9992,2 49738  53.2163 285.4567 0001029  65.1822 294.9277 15.08834233 86782,6917.898,95.438,540.475,539.051,0.0
49738.0,STARLINK-3143,PAYLOAD,2023-06-21 12:50:25,15.08845683,0.0001086,53.2165,283.078,68.1705,291.9402,0.00019307,2.787e-05,0.0,0 STARLINK-3143,1 49738U 21115Q   23172.53501223  .00002787  00000-0  19307-3 0  9994,2 49738  53.2165 283.0780 0001086  68.1705 291.9402 15.08845683 86868,6917.863,95.437,540.479,538.977,0.0
49738.0,STARLINK-3143,PAYLOAD,2023-06-21 14:25:48,15.08848811,0.0001058,53.2167,282.7811,70.0497,290.0609,0.00029495,4.411e-05,0.0,0 STARLINK-3143,1 49738U 21115Q   23172.60125180  .00004411  00000-0  29495-3 0  9991,2 49738  53.2167 282.7811 0001058  70.0497 290.0609 15.08848811 85763,6917.853,95.437,540.45,538.987,0.0
49738.0,STARLINK-3143,PAYLOAD,2023-06-21 23:58:07,15.08839917,9.31e-05,53.2157,280.998,72.731,287.3784,8.9506e-05,1.137e-05,0.0,0 STARLINK-3143,1 49738U 21115Q   23172.99869420  .00001137  00000-0  89506-4 0  9997,2 49738  53.2157 280.9980 0000931  72.7310 287.3784 15.08839917 86931,6917.881,95.438,540.39,539.102,0.0
49738.0,STARLINK-3143,PAYLOAD,2023-06-23 10:56:36,15.0884439,9.65e-05,53.2144,274.455,80.1741,279.936,0.00015908,2.245e-05,0.0,0 STARLINK-3143,1 49738U 21115Q   23174.45597352  .00002245  00000-0  15908-3 0  9997,2 49738  53.2144 274.4550 0000965  80.1741 279.9360 15.08844390 87159,6917.867,95.437,540.4,539.064,0.0
49738.0,STARLINK-3143,PAYLOAD,2023-06-23 23:39:40,15.08855685,6.67e-05,53.2148,272.0763,98.0921,262.0147,0.00037374,5.668e-05,0.0,0 STARLINK-3143,1 49738U 21115Q   23174.98588621  .00005668  00000-0  37374-3 0  9997,2 49738  53.2148 272.0763 0000667  98.0921 262.0147 15.08855685 87234,6917.832,95.437,540.159,539.236,0.0
49738.0,STARLINK-3143,PAYLOAD,2023-06-24 13:58:09,15.08847901,8.12e-05,53.2145,269.399,99.491,260.6174,0.00023335,3.429e-05,0.0,0 STARLINK-3143,1 49738U 21115Q   23175.58205268  .00003429  00000-0  23335-3 0  9992,2 49738  53.2145 269.3990 0000812  99.4910 260.6174 15.08847901 87323,6917.856,95.437,540.283,539.16,0.0
49738.0,STARLINK-3143,PAYLOAD,2023-06-25 05:52:01,15.08835432,7e-05,53.2153,266.4268,78.1887,281.9184,7.5062e-06,-1.68e-06,0.0,0 STARLINK-3143,1 49738U 21115Q   23176.24445602 -.00000168  00000-0  75062-5 0  9998,2 49738  53.2153 266.4268 0000700  78.1887 281.9184 15.08835432 87425,6917.894,95.438,540.244,539.275,0.0
49738.0,STARLINK-3143,PAYLOAD,2023-06-25 12:13:33,15.08846044,0.0001042,53.2148,265.2362,99.1333,260.9777,0.00016939,2.41e-05,0.0,0 STARLINK-3143,1 49738U 21115Q   23176.50941205  .00002410  00000-0  16939-3 0  9994,2 49738  53.2148 265.2362 0001042  99.1333 260.9777 15.08846044 87460,6917.862,95.437,540.448,539.006,0.0
49738.0,STARLINK-3143,PAYLOAD,2023-06-25 23:21:15,15.08839152,7.32e-05,53.2151,263.1537,90.998,269.1096,0.00021648,3.159e-05,0.0,0 STARLINK-3143,1 49738U 21115Q   23176.97309612  .00003159  00000-0  21648-3 0  9999,2 49738  53.2151 263.1537 0000732  90.9980 269.1096 15.08839152 87532,6917.883,95.438,540.254,539.242,0.0
49738.0,STARLINK-3143,PAYLOAD,2023-06-26 15:15:07,15.08836017,0.0001087,53.215,260.1811,84.5922,275.5194,4.8953e-05,4.91e-06,0.0,0 STARLINK-3143,1 49738U 21115Q   23177.63550300  .00000491  00000-0  48953-4 0  9990,2 49738  53.2150 260.1811 0001087  84.5922 275.5194 15.08836017 87630,6917.893,95.438,540.51,539.006,0.0
49738.0,STARLINK-3143,PAYLOAD,2023-06-27 13:30:30,15.08847941,0.0001042,53.2159,256.0169,81.288,278.8231,0.00019788,2.864e-05,0.0,0 STARLINK-3143,1 49738U 21115Q   23178.56285842  .00002864  00000-0  19788-3 0  9998,2 49738  53.2159 256.0169 0001042  81.2880 278.8231 15.08847941 87778,6917.856,95.437,540.442,539.0,0.0
49738.0,STARLINK-3143,PAYLOAD,2023-06-28 10:10:32,15.08835634,0.0001086,53.2165,252.1526,75.4679,284.6433,0.00012573,1.714e-05,0.0,0 STARLINK-3143,1 49738U 21115Q   23179.42398538  .00001714  00000-0  12573-3 0  9999,2 49738  53.2165 252.1526 0001086  75.4679 284.6433 15.08835634 87908,6917.894,95.438,540.51,539.007,0.0
49738.0,STARLINK-3143,PAYLOAD,2023-06-29 14:47:28,15.08846104,0.0001014,53.2163,246.7984,76.0636,284.0469,5.8722e-05,6.47e-06,0.0,0 STARLINK-3143,1 49738U 21115Q   23180.61629952  .00000647  00000-0  58722-4 0  9990,2 49738  53.2163 246.7984 0001014  76.0636 284.0469 15.08846104 88081,6917.862,95.437,540.428,539.025,0.0
49738.0,STARLINK-3143,PAYLOAD,2023-06-30 13:02:52,15.08842995,0.0001119,53.2157,242.6361,88.4215,271.6906,5.3528e-05,5.64e-06,0.0,0 STARLINK-3143,1 49738U 21115Q   23181.54366210  .00000564  00000-0  53528-4 0  9995,2 49738  53.2157 242.6361 0001119  88.4215 271.6906 15.08842995 88222,6917.871,95.437,540.51,538.962,0.0
49738.0,STARLINK-3143,PAYLOAD,2023-06-30 20:59:48,15.08836487,0.0001072,53.216,241.1484,80.8601,279.2512,5.1536e-05,5.32e-06,0.0,0 STARLINK-3143,1 49738U 21115Q   23181.87486698  .00000532  00000-0  51536-4 0  9996,2 49738  53.2160 241.1484 0001072  80.8601 279.2512 15.08836487 88270,6917.891,95.438,540.498,539.015,0.0
49738.0,STARLINK-3143,PAYLOAD,2023-07-02 09:33:40,15.0884172,0.0001011,53.2155,234.3098,81.5908,278.5199,9.9053e-05,1.289e-05,0.0,0 STARLINK-3143,1 49738U 21115Q   23183.39838427  .00001289  00000-0  99053-4 0  9992,2 49738  53.2155 234.3098 0001011  81.5908 278.5199 15.08841720 88505,6917.875,95.437,540.44,539.041,0.0
49738.0,STARLINK-3143,PAYLOAD,2023-07-03 12:35:13,15.08842236,0.0001011,53.2153,229.2538,80.5157,279.595,9.0964e-05,1.16e-05,0.0,0 STARLINK-3143,1 49738U 21115Q   23184.52446399  .00001160  00000-0  90964-4 0  9991,2 49738  53.2153 229.2538 0001011  80.5157 279.5950 15.08842236 88677,6917.874,95.437,540.438,539.039,0.0
49738.0,STARLINK-3143,PAYLOAD,2023-07-05 09:06:01,15.08840155,0.000111,53.2158,220.9271,85.0199,275.092,3.0139e-05,1.92e-06,0.0,0 STARLINK-3143,1 49738U 21115Q   23186.37918528  .00000192  00000-0  30139-4 0  9996,2 49738  53.2158 220.9271 0001110  85.0199 275.0920 15.08840155 88957,6917.88,95.438,540.513,538.977,0.0
49738.0,STARLINK-3143,PAYLOAD,2023-07-06 18:29:07,15.08838205,0.0001051,53.2153,214.6834,82.4023,277.7088,2.2699e-05,7.3e-07,0.0,0 STARLINK-3143,1 49738U 21115Q   23187.77022844  .00000073  00000-0  22699-4 0  9998,2 49738  53.2153 214.6834 0001051  82.4023 277.7088 15.08838205 89169,6917.886,95.438,540.478,539.024,0.0
49738.0,STARLINK-3143,PAYLOAD,2023-07-08 02:16:50,15.08835981,0.0001022,53.2151,208.736,82.6048,277.506,2.9274e-05,1.78e-06,0.0,0 STARLINK-3143,1 49738U 21115Q   23189.09503202  .00000178  00000-0  29274-4 0  9999,2 49738  53.2151 208.7360 0001022  82.6048 277.5060 15.08835981 89360,6917.893,95.438,540.465,539.051,0.0
49738.0,STARLINK-3143,PAYLOAD,2023-07-09 10:04:33,15.08838655,0.0001067,53.2155,202.7876,85.0561,275.0553,2.526e-05,1.14e-06,0.0,0 STARLINK-3143,1 49738U 21115Q   23190.41983233  .00000114  00000-0  25260-4 0  9994,2 49738  53.2155 202.7876 0001067  85.0561 275.0553 15.08838655 89569,6917.885,95.438,540.488,539.011,0.0
